{
    "links": {
        "self": "http://www.neowsapp.com/rest/v1/neo/3440788?api_key=iIulBulltgU6a56xZRHN4H3l9WmuAYTsLGpBGhQ2"
    },
    "id": "3440788",
    "neo_reference_id": "3440788",
    "name": "(2008 WE96)",
    "designation": "2008 WE96",
    "nasa_jpl_url": "http://ssd.jpl.nasa.gov/sbdb.cgi?sstr=3440788",
    "absolute_magnitude_h": 23.7,
    "estimated_diameter": {
        "kilometers": {
            "estimated_diameter_min": 0.0483676488,
            "estimated_diameter_max": 0.1081533507
        },
        "meters": {
            "estimated_diameter_min": 48.3676488219,
            "estimated_diameter_max": 108.1533506775
        },
        "miles": {
            "estimated_diameter_min": 0.0300542543,
            "estimated_diameter_max": 0.0672033557
        },
        "feet": {
            "estimated_diameter_min": 158.6865169607,
            "estimated_diameter_max": 354.8338390368
        }
    },
    "is_potentially_hazardous_asteroid": false,
    "close_approach_data": [
        {
            "close_approach_date": "2008-12-01",
            "close_approach_date_full": "2008-Dec-01 06:08",
            "epoch_date_close_approach": 1228111680000,
            "relative_velocity": {
                "kilometers_per_second": "9.1544059414",
                "kilometers_per_hour": "32955.8613891029",
                "miles_per_hour": "20477.4906503568"
            },
            "miss_distance": {
                "astronomical": "0.0814654617",
                "lunar": "31.6900646013",
                "kilometers": "12187059.548886579",
                "miles": "7572687.6534856302"
            },
            "orbiting_body": "Earth"
        }
    ],
    "orbital_data": {
        "orbit_id": "11",
        "orbit_determination_date": "2017-04-06 09:02:01",
        "first_observation_date": "2008-11-30",
        "last_observation_date": "2008-12-13",
        "data_arc_in_days": 13,
        "observations_used": 33,
        "orbit_uncertainty": "8",
        "minimum_orbit_intersection": ".0714615",
        "jupiter_tisserand_invariant": "3.789",
        "epoch_osculation": "2454803.5",
        "eccentricity": ".4447661659083932",
        "semi_major_axis": "1.902709807041541",
        "inclination": "13.34416519455822",
        "ascending_node_longitude": "68.41651277298971",
        "orbital_period": "958.6437867862131",
        "perihelion_distance": "1.056448861327376",
        "perihelion_argument": "353.3317222556344",
        "aphelion_distance": "2.748970752755706",
        "perihelion_time": "2454796.814807515252",
        "mean_anomaly": "2.510493811864646",
        "mean_motion": ".3755305202643362",
        "equinox": "J2000",
        "orbit_class": {
            "orbit_class_type": "AMO",
            "orbit_class_description": "Near-Earth asteroid orbits similar to that of 1221 Amor",
            "orbit_class_range": "1.017 AU < q (perihelion) < 1.3 AU"
        }
    },
    "is_sentry_object": false
}